{
  "type": "FeatureCollection",
  "features": [
    {
      "type": "Feature",
      "properties": {
        "norad_id": 67132,
        "name": "CZ-4B R/B",
        "group": "last-30-days",
        "lat": 6.354090240705296,
        "lon": 65.70715544988458,
        "alt_km": 261.1652124288212,
        "timestamp": "2025-12-18T07:01:53.343768+00:00",
        "meta_object_name": "CZ-4B R/B",
        "meta_object_id": "2025-300B",
        "meta_epoch": "2025-12-17T15:38:50.646912",
        "meta_mean_motion": 15.63708593,
        "meta_eccentricity": 0.01750896,
        "meta_inclination": 97.5588,
        "meta_ra_of_asc_node": 65.868,
        "meta_arg_of_pericenter": 12.9628,
        "meta_mean_anomaly": 347.6044,
        "meta_ephemeris_type": 0,
        "meta_classification_type": "U",
        "meta_norad_cat_id": 67132,
        "meta_element_set_no": 999,
        "meta_rev_at_epoch": 24,
        "meta_bstar": 0.00019397917,
        "meta_mean_motion_dot": 0.00040269,
        "meta_mean_motion_ddot": 2.639954e-06,
        "tle_line1": "1 67132U 25300B   25351.65197508  .00040269  26400-5  19398-3 0  9997",
        "tle_line2": "2 67132  97.5588  65.8680 0175089  12.9628 347.6044 15.63708593   245"
      },
      "geometry": {
        "type": "Point",
        "coordinates": [
          65.70715544988458,
          6.354090240705296
        ]
      }
    },
    {
      "type": "Feature",
      "properties": {
        "norad_id": 67160,
        "name": "GALILEO A",
        "group": "last-30-days",
        "lat": 54.22592078775004,
        "lon": -160.462129935003,
        "alt_km": 22956.587520298886,
        "timestamp": "2025-12-18T07:01:53.343779+00:00",
        "meta_object_name": "GALILEO A",
        "meta_object_id": "2025-302A",
        "meta_epoch": "2025-12-17T13:37:30.925056",
        "meta_mean_motion": 1.72900439,
        "meta_eccentricity": 0.00075221,
        "meta_inclination": 54.2352,
        "meta_ra_of_asc_node": 107.2635,
        "meta_arg_of_pericenter": 237.6848,
        "meta_mean_anomaly": 122.2012,
        "meta_ephemeris_type": 0,
        "meta_classification_type": "U",
        "meta_norad_cat_id": 67160,
        "meta_element_set_no": 999,
        "meta_rev_at_epoch": 1,
        "meta_bstar": 0,
        "meta_mean_motion_dot": -8e-08,
        "meta_mean_motion_ddot": 0,
        "tle_line1": "1 67160U 25302A   25351.56771904 -.00000008  00000+0  00000+0 0  9994",
        "tle_line2": "2 67160  54.2352 107.2635 0007522 237.6848 122.2012  1.72900439    17"
      },
      "geometry": {
        "type": "Point",
        "coordinates": [
          -160.462129935003,
          54.22592078775004
        ]
      }
    },
    {
      "type": "Feature",
      "properties": {
        "norad_id": 67161,
        "name": "GALILEO B",
        "group": "last-30-days",
        "lat": 54.21315170367815,
        "lon": -160.0492311418665,
        "alt_km": 22943.97392683829,
        "timestamp": "2025-12-18T07:01:53.343794+00:00",
        "meta_object_name": "GALILEO B",
        "meta_object_id": "2025-302B",
        "meta_epoch": "2025-12-17T13:37:26.172192",
        "meta_mean_motion": 1.72965674,
        "meta_eccentricity": 0.00048649,
        "meta_inclination": 54.2314,
        "meta_ra_of_asc_node": 107.2469,
        "meta_arg_of_pericenter": 248.2865,
        "meta_mean_anomaly": 111.6205,
        "meta_ephemeris_type": 0,
        "meta_classification_type": "U",
        "meta_norad_cat_id": 67161,
        "meta_element_set_no": 999,
        "meta_rev_at_epoch": 2,
        "meta_bstar": 0,
        "meta_mean_motion_dot": -8e-08,
        "meta_mean_motion_ddot": 0,
        "tle_line1": "1 67161U 25302B   25351.56766403 -.00000008  00000+0  00000+0 0  9993",
        "tle_line2": "2 67161  54.2314 107.2469 0004864 248.2865 111.6205  1.72965674    23"
      },
      "geometry": {
        "type": "Point",
        "coordinates": [
          -160.0492311418665,
          54.21315170367815
        ]
      }
    },
    {
      "type": "Feature",
      "properties": {
        "norad_id": 67162,
        "name": "ARIANE 6 R/B",
        "group": "last-30-days",
        "lat": 54.192783171687495,
        "lon": -159.1161066464251,
        "alt_km": 22911.243613547173,
        "timestamp": "2025-12-18T07:01:53.343805+00:00",
        "meta_object_name": "ARIANE 6 R/B",
        "meta_object_id": "2025-302C",
        "meta_epoch": "2025-12-17T13:37:22.069920",
        "meta_mean_motion": 1.73128011,
        "meta_eccentricity": 5.226e-05,
        "meta_inclination": 54.235,
        "meta_ra_of_asc_node": 107.275,
        "meta_arg_of_pericenter": 120.9422,
        "meta_mean_anomaly": 239.0217,
        "meta_ephemeris_type": 0,
        "meta_classification_type": "U",
        "meta_norad_cat_id": 67162,
        "meta_element_set_no": 999,
        "meta_rev_at_epoch": 5,
        "meta_bstar": 0,
        "meta_mean_motion_dot": -8e-08,
        "meta_mean_motion_ddot": 0,
        "tle_line1": "1 67162U 25302C   25351.56761655 -.00000008  00000+0  00000+0 0  9998",
        "tle_line2": "2 67162  54.2350 107.2750 0000522 120.9422 239.0217  1.73128011    57"
      },
      "geometry": {
        "type": "Point",
        "coordinates": [
          -159.1161066464251,
          54.192783171687495
        ]
      }
    }
  ]
}